OBJECT_NAME,OBJECT_ID,EPOCH,MEAN_MOTION,ECCENTRICITY,INCLINATION,RA_OF_ASC_NODE,ARG_OF_PERICENTER,MEAN_ANOMALY,EPHEMERIS_TYPE,CLASSIFICATION_TYPE,NORAD_CAT_ID,ELEMENT_SET_NO,REV_AT_EPOCH,BSTAR,MEAN_MOTION_DOT,MEAN_MOTION_DDOT
HXMT (HUIYAN),2017-034A,2026-06-14T04:10:59.858688,15.18462716,.0030297,43.0126,199.8180,127.4337,232.9275,0,U,42758,999,49720,.18233E-3,.3625E-4,0
SAOCOM 1A,2018-076A,2026-06-14T03:58:24.176640,14.82147898,.0001613,97.8880,351.9586,77.9750,282.1644,0,U,43641,999,41565,.85294E-4,.627E-5,0
H-2A R/B,2018-084L,2026-06-14T03:34:53.738976,15.45050978,.0023731,98.8587,43.3755,50.8440,309.4908,0,U,43682,999,42065,.42039E-3,.19974E-3,0
SAOCOM 1B,2020-059A,2026-06-14T03:06:09.457632,14.82167626,.0001455,97.8882,351.0173,80.9112,279.2265,0,U,46265,999,31303,.405E-4,.27E-5,0
CSS (TIANHE),2021-035A,2026-06-14T03:52:37.438752,15.60689990,.0007701,41.4696,340.4133,52.5906,307.5633,0,U,48274,999,29269,.28784E-3,.24349E-3,0
COSMOS 2550,2021-056A,2026-06-14T00:35:19.468032,15.33827229,.0008416,67.1406,109.4720,268.2428,91.7762,0,U,48865,999,27823,.10961E-5,-.156E-5,0
CZ-2C R/B,2022-058K,2026-06-13T12:44:49.894656,15.61605462,.0032703,50.1836,182.5390,252.8586,106.8805,0,U,52794,999,22507,.39469E-3,.35189E-3,0
CZ-2C R/B,2022-132E,2026-06-13T23:14:21.653088,15.71162059,.001643,97.2893,171.8492,94.2347,266.0794,0,U,54039,999,20544,.44311E-3,.5638E-3,0
GSLV R/B,2022-138AN,2026-06-13T23:26:13.983936,14.97242845,.0022403,87.3797,134.0621,154.4998,205.7344,0,U,54149,999,19833,.22634E-3,.2661E-4,0
XRISM,2023-137A,2026-06-13T22:57:54.299808,15.12439898,.000797,31.0031,20.5256,291.7662,68.2128,0,U,57800,999,15237,.27014E-3,.4914E-4,0
ACS3,2024-077B,2026-06-14T04:34:34.066848,13.93842455,.0067638,97.1678,84.6447,66.5004,294.3252,0,U,59588,999,10762,.55011E-2,.7369E-4,0
CZ-8A R/B,2025-231K,2026-06-13T21:47:06.252000,14.30154115,.0116473,50.0054,53.2684,212.4566,146.9149,0,U,66004,999,3447,.38923E-4,-.54E-6,0
SZ-21 MODULE,2025-246C,2026-06-13T17:32:52.137600,15.76117488,.00067511,41.4731,328.8460,328.3391,31.7047,0,U,66515,999,3319,.28446481E-3,.45764E-3,0
